satname,norad_id,inclination_deg,eccentricity,mean_motion_rev_per_day,perigee_km,apogee_km,l1,l2
STARLINK-1008,44714,53.0505,0.000139,15.06389945,546.2797475033522,548.2050029696675,1 44714U 19074B   25282.03592768 -.00002154  00000+0 -12579-3 0  9990,2 44714  53.0505 147.4175 0001390  94.9821 265.1327 15.06389945325898
STARLINK-1010,44716,53.047,0.0003527,15.85822566,311.64927200176953,316.3699122078415,1 44716U 19074D   25282.83611235  .00200113  00000+0  78685-3 0  9994,2 44716  53.0470  82.5805 0003527 105.4409 254.7004 15.85822566326855
STARLINK-1011,44717,53.0472,0.0005725,15.75231738,340.1234175539839,347.8202321584449,1 44717U 19074E   25282.61196934  .00167913  00000+0  10774-2 0  9999,2 44717  53.0472 138.9295 0005725 134.9328 225.2156 15.75231738326064
STARLINK-1012,44718,53.0516,0.0001583,15.06392989,546.1367596486098,548.3293318050873,1 44718U 19074F   25282.34554343 -.00000364  00000+0 -55115-5 0  9991,2 44718  53.0516 146.0304 0001583  88.1849 271.9321 15.06392989325938
STARLINK-1017,44723,53.0508,0.0005017,15.12758702,524.3266444918954,531.2560529970269,1 44723U 19074L   25282.03218539  .00045223  00000+0  25495-2 0  9993,2 44723  53.0508 145.1940 0005017 102.3318 257.8235 15.12758702325929
STARLINK-1019,44724,53.0523,0.0001682,15.06387679,546.0844703070416,548.4141702651859,1 44724U 19074M   25281.94378191  .00000076  00000+0  24020-4 0  9996,2 44724  53.0523 147.8361 0001682  87.0015 273.1167 15.06387679325873
STARLINK-1020,44725,53.0535,0.0001459,15.06404176,546.1883526420415,548.2091656165558,1 44725U 19074N   25282.67912628  .00000276  00000+0  37431-4 0  9999,2 44725  53.0535 164.5335 0001459  91.5206 268.5950 15.06404176325700
STARLINK-1021,44726,53.0325,0.0008436,16.24009164,203.1323511336259,214.24564395668403,1 44726U 19074P   25282.80042538  .03028651  11940-4  10952-2 0  9996,2 44726  53.0325  73.0416 0008436 312.7492  47.2836 16.24009164326995
STARLINK-1029,44734,53.0496,0.0004341,16.06099914,254.68333991758573,260.4444554369493,1 44734U 19074X   25282.61405890  .00608202  19201-3  80893-3 0  9990,2 44734  53.0496 359.1326 0004341  12.7690 347.3451 16.06099914327999
STARLINK-1031,44736,53.0517,0.0009357,15.41931014,434.0305186134965,446.7907486550803,1 44736U 19074Z   25282.60421059  .00082338  00000+0  18931-2 0  9998,2 44736  53.0517 140.1337 0009357 109.9022 250.2991 15.41931014326056
STARLINK-1036,44741,53.0527,0.0001512,15.06395734,546.1775179658607,548.2717473235716,1 44741U 19074AE  25282.37688106  .00002597  00000+0  19322-3 0  9991,2 44741  53.0527 165.8914 0001512  90.0445 270.0717 15.06395734325668
STARLINK-1039,44744,53.0507,0.000699,15.11075938,528.0866226658954,537.7482767866122,1 44744U 19074AH  25282.45767375  .00017338  00000+0  10387-2 0  9999,2 44744  53.0507 184.3391 0006990  75.9880 284.1888 15.11075938325419
STARLINK-1042,44747,53.0463,0.0003404,15.41939023,438.06599718151847,442.7080483362133,1 44747U 19074AL  25282.82105015  .00019782  00000+0  46619-3 0  9993,2 44747  53.0463  94.3172 0003404  74.8639 285.2742 15.41939023326731
STARLINK-1043,44748,53.053,0.0001392,15.06375582,546.3223776655495,548.2504155391644,1 44748U 19074AM  25282.74732742  .00006734  00000+0  47082-3 0  9996,2 44748  53.0530 184.2263 0001392  82.2573 277.8574 15.06375582325443
STARLINK-1046,44751,53.0553,0.000143,15.06400412,546.2199705546873,548.2006198811205,1 44751U 19074AQ  25282.76206385  .00009324  00000+0  64402-3 0  9994,2 44751  53.0553 184.1598 0001430  87.2489 272.8664 15.06400412325442
STARLINK-1047,44752,53.0709,0.000531,15.28609127,476.3275941640313,483.61090300002525,1 44752U 19074AR  25282.59931499  .00010025  00000+0  36744-3 0  9995,2 44752  53.0709 129.7469 0005310 108.0875 252.0703 15.28609127326207
STARLINK-1048,44753,53.0484,6.14e-05,15.06372853,546.8695393227863,547.7199823430174,1 44753U 19074AS  25282.32343163  .00002099  00000+0  15982-3 0  9995,2 44753  53.0484 146.1294 0000614 117.1042 243.0009 15.06372853325933
STARLINK-1053,44758,53.0387,0.0001464,15.57512281,393.86798998202084,395.85112337381634,1 44758U 19074AX  25282.23132183  .00046588  00000+0  62481-3 0  9995,2 44758  53.0387 113.2029 0001464 144.3874 215.7234 15.57512281326406
STARLINK-1054,44759,53.0378,0.000752,15.75400816,338.43619060316087,348.5455188967053,1 44759U 19074AY  25282.62933029  .00257223  00000+0  16180-2 0  9991,2 44759  53.0378 139.0365 0007520 102.4462 257.7399 15.75400816323712
STARLINK-1056,44761,53.039,0.000555,15.87615841,305.25793578624234,312.6806237567889,1 44761U 19074BA  25282.57363170  .00273186  00000+0  97441-3 0  9998,2 44761  53.0390 127.1087 0005550 115.0187 245.1413 15.87615841326230
STARLINK-1060,44765,53.0536,0.0003594,15.55424939,398.481273125768,403.3540576192372,1 44765U 19074BE  25282.66132230  .00463709  00000+0  63131-2 0  9993,2 44765  53.0536 157.4563 0003594 124.8333 235.3015 15.55424939325800
STARLINK-1063,44768,53.0535,0.0001482,15.06402073,546.1788687844237,548.2315402138365,1 44768U 19074BH  25282.81735490  .00011547  00000+0  79276-3 0  9997,2 44768  53.0535 183.9124 0001482  98.6698 261.4458 15.06402073325469
STARLINK-1067,44771,53.0545,0.0001581,15.06385623,546.1607171495671,548.3505262965564,1 44771U 19074BL  25282.47456308 -.00000327  00000+0 -30721-5 0  9991,2 44771  53.0545 185.4518 0001581  91.1684 268.9486 15.06385623325409
STARLINK-1068,44772,53.0526,0.000153,15.0640595,546.1337465659763,548.2528976445401,1 44772U 19074BM  25282.66436803  .00005125  00000+0  36265-3 0  9997,2 44772  53.0526 164.5992 0001530  83.0752 277.0411 15.06405950325701
STARLINK-1112,44925,53.0519,0.000101,15.49491078,417.5273804737508,418.90024333775546,1 44925U 20001M   25282.38039279  .00113576  00000+0  20075-2 0  9995,2 44925  53.0519 270.8806 0001010  70.3757 289.7360 15.49491078317533
STARLINK-1114,44927,53.0539,0.0001516,15.06396327,546.1729306291609,548.272699725123,1 44927U 20001P   25282.37134120 -.00002402  00000+0 -14245-3 0  9997,2 44927  53.0539 305.9159 0001516  79.7150 280.4010 15.06396327317049
STARLINK-1123,44930,53.0538,0.0001414,15.06391166,546.2593848937559,548.2178811227695,1 44930U 20001S   25282.45243323 -.00004018  00000+0 -25105-3 0  9998,2 44930  53.0538 305.5505 0001414  91.5451 268.5700 15.06391166317056
STARLINK-1144,44933,53.0461,0.0011909,15.54559934,395.3559779799225,411.5083193782466,1 44933U 20001V   25282.83700488  .00090291  00000+0  13326-2 0  9990,2 44933  53.0461 246.5183 0011909  19.2373 340.9084 15.54559934319212
STARLINK-1091,44940,53.0391,0.0003025,15.85659522,312.4438137284669,316.4928399512055,1 44940U 20001AC  25282.27914410  .00306587  00000+0  11989-2 0  9999,2 44940  53.0391 231.1007 0003025  83.4902 276.6465 15.85659522318077
STARLINK-1094,44941,53.0553,0.0001303,15.06389312,546.3419381272188,548.1466924979886,1 44941U 20001AD  25282.33264484  .00000635  00000+0  61528-4 0  9997,2 44941  53.0553 286.0878 0001303  87.7419 272.3719 15.06389312317311
STARLINK-1096,44942,52.9926,0.0003646,15.81523933,323.68604289791347,328.57479469970167,1 44942U 20001AE  25282.70019184  .00153437  00000+0  74415-3 0  9991,2 44942  52.9926  55.7888 0003646 316.3250  43.7482 15.81523933320551
STARLINK-1122,44949,53.0556,0.0001806,15.0638728,545.9998181902884,548.5012681708849,1 44949U 20001AM  25282.42110795 -.00001071  00000+0 -52991-4 0  9991,2 44949  53.0556 285.6837 0001806  98.8514 261.2679 15.06387280317324
STARLINK-1080,44961,53.0531,0.000155,15.06384254,546.1863810740833,548.3332540875335,1 44961U 20001AZ  25282.22022231  .00003002  00000+0  22046-3 0  9991,2 44961  53.0531 266.5920 0001550  82.5727 277.5438 15.06384254317583
STARLINK-1090,44968,53.0539,0.0001377,15.06393342,546.278340518189,548.1855871308271,1 44968U 20001BG  25282.35660527  .00000746  00000+0  68975-4 0  9992,2 44968  53.0539 265.9812 0001377  93.9298 266.1848 15.06393342317607
STARLINK-1107,44972,53.0107,0.0007367,15.60910974,380.0419825268982,390.00682453886475,1 44972U 20001BL  25282.76763816  .00124175  00000+0  14389-2 0  9998,2 44972  53.0107 187.7249 0007367 130.8088 229.3564 15.60910974318738
STARLINK-1132,45044,53.0541,0.0001132,15.06398973,546.4307557340826,547.9986553602175,1 45044U 20006A   25282.24970766  .00002018  00000+0  15431-3 0  9992,2 45044  53.0541 226.4573 0001132  96.0519 264.0599 15.06398973313916
STARLINK-1131,45047,53.0546,0.0001388,15.06389342,546.2829804520343,548.2054662796409,1 45047U 20006D   25282.29217096 -.00000608  00000+0 -21903-4 0  9997,2 45047  53.0546 246.8082 0001388  97.0911 263.0235 15.06389342313630
STARLINK-1134,45048,53.038,0.0011439,15.25490283,481.457925803179,497.1692792916874,1 45048U 20006E   25282.22106801  .00011003  00000+0  44094-3 0  9996,2 45048  53.0380 228.0876 0011439  69.0068 291.2151 15.25490283313896
STARLINK-1156,45054,53.0545,0.0001484,15.06390593,546.2126631839001,548.2681151930119,1 45054U 20006L   25282.85973985 -.00001345  00000+0 -71446-4 0  9999,2 45054  53.0545 243.7228 0001484  91.3153 268.8006 15.06390593313726
STARLINK-1159,45057,53.0539,0.0001763,15.06379333,546.0539499228898,548.4958501588444,1 45057U 20006P   25282.27735332 -.00000857  00000+0 -38641-4 0  9997,2 45057  53.0539 246.3354 0001763  94.2644 265.8547 15.06379333313645
STARLINK-1166,45060,53.0544,0.0001429,15.06385447,546.2665224636185,548.2457998290738,1 45060U 20006S   25282.28841148 -.00001810  00000+0 -10272-3 0  9994,2 45060  53.0544 246.2866 0001429  92.8908 267.2244 15.06385447313641
STARLINK-1169,45061,53.0541,0.0001513,15.06368844,546.2592285523042,548.3548679213,1 45061U 20006T   25282.29579545 -.00004975  00000+0 -31557-3 0  9999,2 45061  53.0541 246.2530 0001513  88.2882 271.8280 15.06368844313644
STARLINK-1171,45062,53.0542,0.0001286,15.06398367,546.3259623844206,548.1071633207866,1 45062U 20006U   25282.34738215  .00002210  00000+0  16724-3 0  9994,2 45062  53.0542 246.0180 0001286  88.9024 271.2112 15.06398367313659
